IRIDIUM 116             
1 43072U 17083C   25166.37213109  .00000265  00000+0  87732-4 0  9994
2 43072  86.3962 115.3684 0002271  78.3943 281.7508 14.34219537391593
IRIDIUM 130             
1 43073U 17083D   25166.27063704  .00000257  00000+0  84696-4 0  9995
2 43073  86.3972 115.6504 0002509  77.1163 283.0313 14.34219523391521
IRIDIUM 151             
1 43074U 17083E   25166.31503552  .00000142  00000+0  43742-4 0  9991
2 43074  86.3965 115.4419 0002228  79.1305 281.0142 14.34218733391558
IRIDIUM 134             
1 43075U 17083F   25166.56239853  .00000045  00000+0  90470-5 0  9992
2 43075  86.3966 115.3415 0002522  79.6065 280.5415 14.34217825391558
IRIDIUM 137             
1 43076U 17083G   25166.57508188  .00000093  00000+0  26202-4 0  9998
2 43076  86.3968 115.4213 0001784  73.3294 286.8097 14.34217666391628
IRIDIUM 141             
1 43077U 17083H   25166.56874030  .00000125  00000+0  37402-4 0  9990
2 43077  86.3963 115.2755 0002385  90.3075 269.8394 14.34218407391622
IRIDIUM 153             
1 43078U 17083J   25166.31162753  .00000309  00000+0  10338-3 0  9998
2 43078  86.3962  83.8518 0002553  92.3841 267.7647 14.34217002392695
IRIDIUM 131             
1 43079U 17083K   25166.55605510  .00000048  00000+0  99341-5 0  9991
2 43079  86.3969 115.4424 0002171  88.8452 271.2992 14.34217907391556
